CCSDS_OMM_VERS = 2.0
CREATION_DATE  = 
ORIGINATOR     = 

OBJECT_NAME    = SL-14 R/B
OBJECT_ID      = 1991-042B
CENTER_NAME    = EARTH
REF_FRAME      = TEME
TIME_SYSTEM    = UTC
MEAN_ELEMENT_THEORY = SGP/SGP4

EPOCH          = 2026-01-20T17:54:32.828256
MEAN_MOTION    = 14.81780631
ECCENTRICITY   = .00181144
INCLINATION    = 82.4921
RA_OF_ASC_NODE = 265.1499
ARG_OF_PERICENTER = 42.4426
MEAN_ANOMALY   = 317.8185

EPHEMERIS_TYPE = 0
CLASSIFICATION_TYPE = U
NORAD_CAT_ID   = 21423
ELEMENT_SET_NO = 999
REV_AT_EPOCH   = 84597
BSTAR          = .88494811E-4
MEAN_MOTION_DOT = .723E-5
MEAN_MOTION_DDOT = 0

CCSDS_OMM_VERS = 2.0
CREATION_DATE  = 
ORIGINATOR     = 

OBJECT_NAME    = ERS-1
OBJECT_ID      = 1991-050A
CENTER_NAME    = EARTH
REF_FRAME      = TEME
TIME_SYSTEM    = UTC
MEAN_ELEMENT_THEORY = SGP/SGP4

EPOCH          = 2026-01-20T22:37:31.783872
MEAN_MOTION    = 14.39403009
ECCENTRICITY   = .00316556
INCLINATION    = 98.7896
RA_OF_ASC_NODE = 37.9776
ARG_OF_PERICENTER = 345.8572
MEAN_ANOMALY   = 14.1725

EPHEMERIS_TYPE = 0
CLASSIFICATION_TYPE = U
NORAD_CAT_ID   = 21574
ELEMENT_SET_NO = 999
REV_AT_EPOCH   = 80886
BSTAR          = .23756497E-3
MEAN_MOTION_DOT = .697E-5
MEAN_MOTION_DDOT = 0

CCSDS_OMM_VERS = 2.0
CREATION_DATE  = 
ORIGINATOR     = 

OBJECT_NAME    = ARIANE 40 R/B
OBJECT_ID      = 1991-050F
CENTER_NAME    = EARTH
REF_FRAME      = TEME
TIME_SYSTEM    = UTC
MEAN_ELEMENT_THEORY = SGP/SGP4

EPOCH          = 2026-01-20T18:15:00.377856
MEAN_MOTION    = 14.42850642
ECCENTRICITY   = .00026541
INCLINATION    = 98.2108
RA_OF_ASC_NODE = 74.7727
ARG_OF_PERICENTER = 198.4311
MEAN_ANOMALY   = 161.6784

EPHEMERIS_TYPE = 0
CLASSIFICATION_TYPE = U
NORAD_CAT_ID   = 21610
ELEMENT_SET_NO = 999
REV_AT_EPOCH   = 81208
BSTAR          = .2100959E-3
MEAN_MOTION_DOT = .659E-5
MEAN_MOTION_DDOT = 0

CCSDS_OMM_VERS = 2.0
CREATION_DATE  = 
ORIGINATOR     = 

OBJECT_NAME    = INTERCOSMOS 25
OBJECT_ID      = 1991-086A
CENTER_NAME    = EARTH
REF_FRAME      = TEME
TIME_SYSTEM    = UTC
MEAN_ELEMENT_THEORY = SGP/SGP4

EPOCH          = 2026-01-20T20:28:00.074496
MEAN_MOTION    = 12.11866213
ECCENTRICITY   = .14860692
INCLINATION    = 82.6088
RA_OF_ASC_NODE = 338.9179
ARG_OF_PERICENTER = 220.0237
MEAN_ANOMALY   = 128.1586

EPHEMERIS_TYPE = 0
CLASSIFICATION_TYPE = U
NORAD_CAT_ID   = 21819
ELEMENT_SET_NO = 999
REV_AT_EPOCH   = 49089
BSTAR          = .21686003E-3
MEAN_MOTION_DOT = .11E-4
MEAN_MOTION_DDOT = 0

CCSDS_OMM_VERS = 2.0
CREATION_DATE  = 
ORIGINATOR     = 

OBJECT_NAME    = SL-8 R/B
OBJECT_ID      = 1992-008B
CENTER_NAME    = EARTH
REF_FRAME      = TEME
TIME_SYSTEM    = UTC
MEAN_ELEMENT_THEORY = SGP/SGP4

EPOCH          = 2026-01-20T20:59:52.897920
MEAN_MOTION    = 13.75967115
ECCENTRICITY   = .00333376
INCLINATION    = 82.9290
RA_OF_ASC_NODE = 303.3425
ARG_OF_PERICENTER = 268.5208
MEAN_ANOMALY   = 157.1764

EPHEMERIS_TYPE = 0
CLASSIFICATION_TYPE = U
NORAD_CAT_ID   = 21876
ELEMENT_SET_NO = 999
REV_AT_EPOCH   = 70284
BSTAR          = .98593586E-4
MEAN_MOTION_DOT = .111E-5
MEAN_MOTION_DDOT = 0

CCSDS_OMM_VERS = 2.0
CREATION_DATE  = 
ORIGINATOR     = 

OBJECT_NAME    = SL-8 R/B
OBJECT_ID      = 1992-020B
CENTER_NAME    = EARTH
REF_FRAME      = TEME
TIME_SYSTEM    = UTC
MEAN_ELEMENT_THEORY = SGP/SGP4

EPOCH          = 2026-01-20T23:41:33.234144
MEAN_MOTION    = 13.75540138
ECCENTRICITY   = .00301696
INCLINATION    = 82.9300
RA_OF_ASC_NODE = 189.1717
ARG_OF_PERICENTER = 71.8935
MEAN_ANOMALY   = 48.7926

EPHEMERIS_TYPE = 0
CLASSIFICATION_TYPE = U
NORAD_CAT_ID   = 21938
ELEMENT_SET_NO = 999
REV_AT_EPOCH   = 69457
BSTAR          = .21576347E-3
MEAN_MOTION_DOT = .224E-5
MEAN_MOTION_DDOT = 0

CCSDS_OMM_VERS = 2.0
CREATION_DATE  = 
ORIGINATOR     = 

OBJECT_NAME    = USA 81
OBJECT_ID      = 1992-023A
CENTER_NAME    = EARTH
REF_FRAME      = TEME
TIME_SYSTEM    = UTC
MEAN_ELEMENT_THEORY = SGP/SGP4

EPOCH          = 2026-01-20T21:01:09.221952
MEAN_MOTION    = 14.32345683
ECCENTRICITY   = .00019453
INCLINATION    = 85.0108
RA_OF_ASC_NODE = 159.0076
ARG_OF_PERICENTER = 116.3702
MEAN_ANOMALY   = 243.7690

EPHEMERIS_TYPE = 0
CLASSIFICATION_TYPE = U
NORAD_CAT_ID   = 21949
ELEMENT_SET_NO = 999
REV_AT_EPOCH   = 8794
BSTAR          = .13847331E-3
MEAN_MOTION_DOT = .394E-5
MEAN_MOTION_DDOT = 0

CCSDS_OMM_VERS = 2.0
CREATION_DATE  = 
ORIGINATOR     = 

OBJECT_NAME    = COSMOS 2219
OBJECT_ID      = 1992-076A
CENTER_NAME    = EARTH
REF_FRAME      = TEME
TIME_SYSTEM    = UTC
MEAN_ELEMENT_THEORY = SGP/SGP4

EPOCH          = 2026-01-20T16:50:30.437952
MEAN_MOTION    = 14.14081469
ECCENTRICITY   = .00208491
INCLINATION    = 71.0616
RA_OF_ASC_NODE = 118.3891
ARG_OF_PERICENTER = 273.6035
MEAN_ANOMALY   = 86.2703

EPHEMERIS_TYPE = 0
CLASSIFICATION_TYPE = U
NORAD_CAT_ID   = 22219
ELEMENT_SET_NO = 999
REV_AT_EPOCH   = 71159
BSTAR          = -.2071066E-5
MEAN_MOTION_DOT = -.51E-6
MEAN_MOTION_DDOT = 0

CCSDS_OMM_VERS = 2.0
CREATION_DATE  = 
ORIGINATOR     = 

OBJECT_NAME    = SL-16 R/B
OBJECT_ID      = 1992-076B
CENTER_NAME    = EARTH
REF_FRAME      = TEME
TIME_SYSTEM    = UTC
MEAN_ELEMENT_THEORY = SGP/SGP4

EPOCH          = 2026-01-20T23:24:14.727744
MEAN_MOTION    = 14.16850624
ECCENTRICITY   = .00125917
INCLINATION    = 71.0007
RA_OF_ASC_NODE = 288.8843
ARG_OF_PERICENTER = 178.7807
MEAN_ANOMALY   = 263.5674

EPHEMERIS_TYPE = 0
CLASSIFICATION_TYPE = U
NORAD_CAT_ID   = 22220
ELEMENT_SET_NO = 999
REV_AT_EPOCH   = 71507
BSTAR          = -.16953062E-4
MEAN_MOTION_DOT = -.82E-6
MEAN_MOTION_DDOT = 0

CCSDS_OMM_VERS = 2.0
CREATION_DATE  = 
ORIGINATOR     = 

OBJECT_NAME    = COSMOS 2221
OBJECT_ID      = 1992-080A
CENTER_NAME    = EARTH
REF_FRAME      = TEME
TIME_SYSTEM    = UTC
MEAN_ELEMENT_THEORY = SGP/SGP4

EPOCH          = 2026-01-20T21:12:06.075360
MEAN_MOTION    = 14.95961898
ECCENTRICITY   = .00146587
INCLINATION    = 82.5069
RA_OF_ASC_NODE = 324.8557
ARG_OF_PERICENTER = 0.8658
MEAN_ANOMALY   = 359.2586

EPHEMERIS_TYPE = 0
CLASSIFICATION_TYPE = U
NORAD_CAT_ID   = 22236
ELEMENT_SET_NO = 999
REV_AT_EPOCH   = 77364
BSTAR          = .40405124E-3
MEAN_MOTION_DOT = .456E-4
MEAN_MOTION_DDOT = 0

CCSDS_OMM_VERS = 2.0
CREATION_DATE  = 
ORIGINATOR     = 

OBJECT_NAME    = SL-16 R/B
OBJECT_ID      = 1992-093B
CENTER_NAME    = EARTH
REF_FRAME      = TEME
TIME_SYSTEM    = UTC
MEAN_ELEMENT_THEORY = SGP/SGP4

EPOCH          = 2026-01-20T16:24:31.885632
MEAN_MOTION    = 14.15441093
ECCENTRICITY   = .00040982
INCLINATION    = 71.0223
RA_OF_ASC_NODE = 105.0465
ARG_OF_PERICENTER = 348.4142
MEAN_ANOMALY   = 11.6886

EPHEMERIS_TYPE = 0
CLASSIFICATION_TYPE = U
NORAD_CAT_ID   = 22285
ELEMENT_SET_NO = 999
REV_AT_EPOCH   = 70636
BSTAR          = .17716656E-3
MEAN_MOTION_DOT = .298E-5
MEAN_MOTION_DDOT = 0

CCSDS_OMM_VERS = 2.0
CREATION_DATE  = 
ORIGINATOR     = 

OBJECT_NAME    = COSMOS 2228
OBJECT_ID      = 1992-094A
CENTER_NAME    = EARTH
REF_FRAME      = TEME
TIME_SYSTEM    = UTC
MEAN_ELEMENT_THEORY = SGP/SGP4

EPOCH          = 2026-01-20T22:20:36.233088
MEAN_MOTION    = 14.96944816
ECCENTRICITY   = .00195694
INCLINATION    = 82.5185
RA_OF_ASC_NODE = 283.0362
ARG_OF_PERICENTER = 100.9111
MEAN_ANOMALY   = 259.4315

EPHEMERIS_TYPE = 0
CLASSIFICATION_TYPE = U
NORAD_CAT_ID   = 22286
ELEMENT_SET_NO = 999
REV_AT_EPOCH   = 76891
BSTAR          = .50451121E-3
MEAN_MOTION_DOT = .5844E-4
MEAN_MOTION_DDOT = 0

