SL-14 R/B               
1 21423U 91042B   26020.74621329  .00000723  00000+0  88495-4 0  9991
2 21423  82.4921 265.1499 0018114  42.4426 317.8185 14.81780631845978
ERS-1                   
1 21574U 91050A   26020.94272898  .00000697  00000+0  23756-3 0  9990
2 21574  98.7896  37.9776 0031655 345.8572  14.1725 14.39403009808864
ARIANE 40 R/B           
1 21610U 91050F   26020.76042104  .00000659  00000+0  21010-3 0  9995
2 21610  98.2108  74.7727 0002654 198.4311 161.6784 14.42850642812086
INTERCOSMOS 25          
1 21819U 91086A   26020.85277864  .00001100  00000+0  21686-3 0  9999
2 21819  82.6088 338.9179 1486069 220.0237 128.1586 12.11866213490897
SL-8 R/B                
1 21876U 92008B   26020.87491780  .00000111  00000+0  98594-4 0  9998
2 21876  82.9290 303.3425 0033337 268.5208 157.1764 13.75967115702843
SL-8 R/B                
1 21938U 92020B   26020.98719021  .00000224  00000+0  21576-3 0  9994
2 21938  82.9300 189.1717 0030169  71.8935  48.7926 13.75540138694577
USA 81                  
1 21949U 92023A   26020.87580118  .00000394  00000+0  13847-3 0  9990
2 21949  85.0108 159.0076 0001945 116.3702 243.7690 14.32345683 87944
COSMOS 2219             
1 22219U 92076A   26020.70174118 -.00000051  00000+0 -20711-5 0  9992
2 22219  71.0616 118.3891 0020849 273.6035  86.2703 14.14081469711596
SL-16 R/B               
1 22220U 92076B   26020.97517046 -.00000082  00000+0 -16953-4 0  9990
2 22220  71.0007 288.8843 0012591 178.7807 263.5674 14.16850624715072
COSMOS 2221             
1 22236U 92080A   26020.88340365  .00004560  00000+0  40405-3 0  9991
2 22236  82.5069 324.8557 0014658   0.8658 359.2586 14.95961898773647
SL-16 R/B               
1 22285U 92093B   26020.68370238  .00000298  00000+0  17717-3 0  9993
2 22285  71.0223 105.0465 0004098 348.4142  11.6886 14.15441093706368
COSMOS 2228             
1 22286U 92094A   26020.93097492  .00005844  00000+0  50451-3 0  9995
2 22286  82.5185 283.0362 0019569 100.9111 259.4315 14.96944816768910
